{
  "type": "FeatureCollection",
  "features": [
    {
      "type": "Feature",
      "properties": {
        "norad_id": 27954,
        "name": "GALAXY 13 (HORIZONS-1)",
        "group": "intelsat",
        "lat": -0.6320179419878573,
        "lon": 43.07936034665457,
        "alt_km": 35794.98608476301,
        "timestamp": "2025-12-19T06:59:43.571396+00:00",
        "meta_object_name": "GALAXY 13 (HORIZONS-1)",
        "meta_object_id": "2003-044A",
        "meta_epoch": "2025-12-18T17:43:08.755392",
        "meta_mean_motion": 1.00269349,
        "meta_eccentricity": 0.00024576,
        "meta_inclination": 0.9518,
        "meta_ra_of_asc_node": 86.3931,
        "meta_arg_of_pericenter": 174.6502,
        "meta_mean_anomaly": 302.3385,
        "meta_ephemeris_type": 0,
        "meta_classification_type": "U",
        "meta_norad_cat_id": 27954,
        "meta_element_set_no": 999,
        "meta_rev_at_epoch": 4476,
        "meta_bstar": 0,
        "meta_mean_motion_dot": 1.57e-06,
        "meta_mean_motion_ddot": 0,
        "tle_line1": "1 27954U 03044A   25352.73829578  .00000157  00000+0  00000+0 0  9995",
        "tle_line2": "2 27954   0.9518  86.3931 0002457 174.6502 302.3385  1.00269349 44764"
      },
      "geometry": {
        "type": "Point",
        "coordinates": [
          43.07936034665457,
          -0.6320179419878573
        ]
      }
    },
    {
      "type": "Feature",
      "properties": {
        "norad_id": 28358,
        "name": "INTELSAT 10-02",
        "group": "intelsat",
        "lat": 0.007123997331394235,
        "lon": -167.90435962817125,
        "alt_km": 35787.06158528002,
        "timestamp": "2025-12-19T06:59:43.571409+00:00",
        "meta_object_name": "INTELSAT 10-02",
        "meta_object_id": "2004-022A",
        "meta_epoch": "2025-12-18T20:08:22.788096",
        "meta_mean_motion": 1.00272833,
        "meta_eccentricity": 8.965e-05,
        "meta_inclination": 0.0192,
        "meta_ra_of_asc_node": 66.3622,
        "meta_arg_of_pericenter": 235.9772,
        "meta_mean_anomaly": 86.4926,
        "meta_ephemeris_type": 0,
        "meta_classification_type": "U",
        "meta_norad_cat_id": 28358,
        "meta_element_set_no": 999,
        "meta_rev_at_epoch": 7874,
        "meta_bstar": 0,
        "meta_mean_motion_dot": 1.5e-07,
        "meta_mean_motion_ddot": 0,
        "tle_line1": "1 28358U 04022A   25352.83915264  .00000015  00000+0  00000+0 0  9993",
        "tle_line2": "2 28358   0.0192  66.3622 0000896 235.9772  86.4926  1.00272833 78740"
      },
      "geometry": {
        "type": "Point",
        "coordinates": [
          -167.90435962817125,
          0.007123997331394235
        ]
      }
    },
    {
      "type": "Feature",
      "properties": {
        "norad_id": 28626,
        "name": "XM-3 (RHYTHM)",
        "group": "intelsat",
        "lat": -0.07343181746332007,
        "lon": -83.78660650169418,
        "alt_km": 36159.896684233405,
        "timestamp": "2025-12-19T06:59:43.571436+00:00",
        "meta_object_name": "XM-3 (RHYTHM)",
        "meta_object_id": "2005-008A",
        "meta_epoch": "2025-12-18T22:15:33.109056",
        "meta_mean_motion": 0.98950209,
        "meta_eccentricity": 0.00018618,
        "meta_inclination": 0.1901,
        "meta_ra_of_asc_node": 81.9252,
        "meta_arg_of_pericenter": 278.2216,
        "meta_mean_anomaly": 146.4282,
        "meta_ephemeris_type": 0,
        "meta_classification_type": "U",
        "meta_norad_cat_id": 28626,
        "meta_element_set_no": 999,
        "meta_rev_at_epoch": 4081,
        "meta_bstar": 0,
        "meta_mean_motion_dot": 4.3e-07,
        "meta_mean_motion_ddot": 0,
        "tle_line1": "1 28626U 05008A   25352.92746654  .00000043  00000+0  00000+0 0  9992",
        "tle_line2": "2 28626   0.1901  81.9252 0001861 278.2216 146.4282  0.98950209 40810"
      },
      "geometry": {
        "type": "Point",
        "coordinates": [
          -83.78660650169418,
          -0.07343181746332007
        ]
      }
    },
    {
      "type": "Feature",
      "properties": {
        "norad_id": 28659,
        "name": "DIRECTV 8",
        "group": "intelsat",
        "lat": 0.02269913069453791,
        "lon": 74.03754150902724,
        "alt_km": 35797.21316812962,
        "timestamp": "2025-12-19T06:59:43.571449+00:00",
        "meta_object_name": "DIRECTV 8",
        "meta_object_id": "2005-019A",
        "meta_epoch": "2025-12-18T23:00:06.340608",
        "meta_mean_motion": 1.00271061,
        "meta_eccentricity": 0.0002824,
        "meta_inclination": 0.0011,
        "meta_ra_of_asc_node": 23.8533,
        "meta_arg_of_pericenter": 254.1308,
        "meta_mean_anomaly": 35.8187,
        "meta_ephemeris_type": 0,
        "meta_classification_type": "U",
        "meta_norad_cat_id": 28659,
        "meta_element_set_no": 999,
        "meta_rev_at_epoch": 7526,
        "meta_bstar": 0,
        "meta_mean_motion_dot": 2.6e-07,
        "meta_mean_motion_ddot": 0,
        "tle_line1": "1 28659U 05019A   25352.95840672  .00000026  00000+0  00000+0 0  9999",
        "tle_line2": "2 28659   0.0011  23.8533 0002824 254.1308  35.8187  1.00271061 75267"
      },
      "geometry": {
        "type": "Point",
        "coordinates": [
          74.03754150902724,
          0.02269913069453791
        ]
      }
    },
    {
      "type": "Feature",
      "properties": {
        "norad_id": 28702,
        "name": "GALAXY 28 (G-28)",
        "group": "intelsat",
        "lat": 1.1413146908292706,
        "lon": 104.34526971010767,
        "alt_km": 35798.380005094186,
        "timestamp": "2025-12-19T06:59:43.571461+00:00",
        "meta_object_name": "GALAXY 28 (G-28)",
        "meta_object_id": "2005-022A",
        "meta_epoch": "2025-12-18T19:43:17.690592",
        "meta_mean_motion": 1.00271015,
        "meta_eccentricity": 0.0002935,
        "meta_inclination": 2.835,
        "meta_ra_of_asc_node": 81.2126,
        "meta_arg_of_pericenter": 191.9736,
        "meta_mean_anomaly": 21.6294,
        "meta_ephemeris_type": 0,
        "meta_classification_type": "U",
        "meta_norad_cat_id": 28702,
        "meta_element_set_no": 999,
        "meta_rev_at_epoch": 5016,
        "meta_bstar": 0,
        "meta_mean_motion_dot": -1.65e-06,
        "meta_mean_motion_ddot": 0,
        "tle_line1": "1 28702U 05022A   25352.82173253 -.00000165  00000+0  00000+0 0  9997",
        "tle_line2": "2 28702   2.8350  81.2126 0002935 191.9736  21.6294  1.00271015 50167"
      },
      "geometry": {
        "type": "Point",
        "coordinates": [
          104.34526971010767,
          1.1413146908292706
        ]
      }
    },
    {
      "type": "Feature",
      "properties": {
        "norad_id": 29236,
        "name": "GALAXY 16 (G-16)",
        "group": "intelsat",
        "lat": 0.007896189721978334,
        "lon": 94.05564779942138,
        "alt_km": 35796.50895999271,
        "timestamp": "2025-12-19T06:59:43.571473+00:00",
        "meta_object_name": "GALAXY 16 (G-16)",
        "meta_object_id": "2006-023A",
        "meta_epoch": "2025-12-18T23:05:50.790624",
        "meta_mean_motion": 1.00271428,
        "meta_eccentricity": 0.00024656,
        "meta_inclination": 0.0212,
        "meta_ra_of_asc_node": 236.7094,
        "meta_arg_of_pericenter": 28.2257,
        "meta_mean_anomaly": 70.3422,
        "meta_ephemeris_type": 0,
        "meta_classification_type": "U",
        "meta_norad_cat_id": 29236,
        "meta_element_set_no": 999,
        "meta_rev_at_epoch": 7116,
        "meta_bstar": 0,
        "meta_mean_motion_dot": -1.02e-06,
        "meta_mean_motion_ddot": 0,
        "tle_line1": "1 29236U 06023A   25352.96239341 -.00000102  00000+0  00000+0 0  9999",
        "tle_line2": "2 29236   0.0212 236.7094 0002465  28.2257  70.3422  1.00271428 71161"
      },
      "geometry": {
        "type": "Point",
        "coordinates": [
          94.05564779942138,
          0.007896189721978334
        ]
      }
    },
    {
      "type": "Feature",
      "properties": {
        "norad_id": 29494,
        "name": "DIRECTV 9S",
        "group": "intelsat",
        "lat": 0.3235222825239709,
        "lon": 91.84958097651275,
        "alt_km": 35797.955520864205,
        "timestamp": "2025-12-19T06:59:43.571485+00:00",
        "meta_object_name": "DIRECTV 9S",
        "meta_object_id": "2006-043A",
        "meta_epoch": "2025-12-18T23:05:13.350912",
        "meta_mean_motion": 1.00271791,
        "meta_eccentricity": 0.00028112,
        "meta_inclination": 1.9554,
        "meta_ra_of_asc_node": 83.1482,
        "meta_arg_of_pericenter": 190.4314,
        "meta_mean_anomaly": 59.3322,
        "meta_ephemeris_type": 0,
        "meta_classification_type": "U",
        "meta_norad_cat_id": 29494,
        "meta_element_set_no": 999,
        "meta_rev_at_epoch": 4957,
        "meta_bstar": 0,
        "meta_mean_motion_dot": -9e-07,
        "meta_mean_motion_ddot": 0,
        "tle_line1": "1 29494U 06043A   25352.96196008 -.00000090  00000+0  00000+0 0  9995",
        "tle_line2": "2 29494   1.9554  83.1482 0002811 190.4314  59.3322  1.00271791 49571"
      },
      "geometry": {
        "type": "Point",
        "coordinates": [
          91.84958097651275,
          0.3235222825239709
        ]
      }
    }
  ]
}